{"type": "FeatureCollection", "features": [{"type": "Feature", "properties": {"name": "Nakuru", "pcode": "KE032"}, "geometry": {"type": "Polygon", "coordinates": [[[36.25917316500005, 0.06205271700002868], [36.257156000000066, 0.05936352900005204], [36.256612578000045, 0.05860849700002291], [36.25651942600007, 0.05736747000003106], [36.25696308800008, 0.05494875300007607], [36.258489379000025, 0.04936805500005903], [36.25977044500007, 0.04472951600007491], [36.26012501800005, 0.04339850900004194], [36.26036710900007, 0.042603864000057], [36.260961492000035, 0.04053323700003375], [36.26124812100005, 0.03954396700004281], [36.26160615900005, 0.037991219000048204], [36.26200477300006, 0.03663554800004931], [36.26214250400005, 0.03569111800004521], [36.26259827300004, 0.03503537000005963], [36.26898268000008, 0.021942133000038666], [36.26537642100004, 0.021171163000019533], [36.261629535000054, 0.00044512800002394215], [36.26119607900006, -0.0004641019999667151], [36.26076308800003, -0.0011460539999461616], [36.26048509300006, -0.001965973999972448], [36.260185490000026, -0.002842388999965806], [36.25989057900006, -0.00405762799994136], [36.25967158100008, -0.005155921999971724], [36.259153146000074, -0.007574519999934637], [36.258935346000044, -0.008728603999941242], [36.25871400300008, -0.009823102999973798], [36.25854861500005, -0.010571257999970385], [36.257786519000035, -0.01376228899994203], [36.25721498000007, -0.016152088999945136], [36.25695163100005, -0.01810619099995847], [36.256988912000054, -0.019521450999945955], [36.257253982000066, -0.020997841999928823], [36.25655507500005, -0.023173436999968544], [36.25624927100006, -0.023936024999954952], [36.255852607000065, -0.024797196999941207], [36.25439279400007, -0.027958357999978034], [36.25259252500007, -0.03146038999994971], [36.25511932400008, -0.03281469999996034], [36.254877297000064, -0.033948183999939374], [36.25464344100004, -0.035062611999933324], [36.25378952500006, -0.03922335699996893], [36.253077129000076, -0.042636921999928745], [36.252552252000044, -0.044960648999960995], [36.24978108700003, -0.04776792099994509], [36.24823568000005, -0.04938818899995567], [36.24659417300006, -0.0578584519999481], [36.250656426000035, -0.05775301599993554], [36.25097808700008, -0.07212726599993857], [36.25147795000004, -0.08202804699993749], [36.24977155000005, -0.09203945199993768], [36.24845397800004, -0.10054395399993155], [36.24666896900004, -0.11573913899997024], [36.243382464000035, -0.11515363999995998], [36.227689446000056, -0.11242354699993484], [36.228489989000025, -0.10452363999996805], [36.22067801700007, -0.10316692399993599], [36.219369982000046, -0.11093120099997122], [36.21429846700005, -0.1171530309999298], [36.21212815200005, -0.1193370079999454], [36.20808835500003, -0.12475046799994516], [36.207451580000054, -0.12551524899993183], [36.20078119400006, -0.1341524489999415], [36.202594814000065, -0.14346620699996038], [36.20455611800003, -0.15304413699993802], [36.20645788500008, -0.16272919899995486], [36.20753491800008, -0.1691372059999594], [36.208378725000046, -0.17236429799993402], [36.21018174100004, -0.18136562799998046], [36.21036863900008, -0.1821135769999387], [36.21059332900006, -0.18285042899992732], [36.21115462400007, -0.18446486099992399], [36.21149265200006, -0.18569975099995872], [36.21138582800006, -0.18703232199993636], [36.21169817600003, -0.1887126059999673], [36.211919755000054, -0.1895739359999311], [36.211955345000035, -0.19033825699995077], [36.21196781800006, -0.19612348399994062], [36.21185106100006, -0.19906782499992914], [36.211820067000076, -0.20061827999995785], [36.212108518000036, -0.20172389199996132], [36.212763761000076, -0.2025498629999447], [36.21887579700007, -0.20934786599997324], [36.22018136100007, -0.20922659599995086], [36.22387491600006, -0.20868831699993962], [36.22462196300006, -0.20929815299996335], [36.22639285500003, -0.21185429799993472], [36.22837237700003, -0.21465525199994318], [36.23002856700003, -0.21713204899992888], [36.23083780400003, -0.21833795599997075], [36.231405797000036, -0.21913863799994715], [36.23284097700008, -0.22127055799995787], [36.233460035000064, -0.2221589219999487], [36.234161346000064, -0.22318438699994658], [36.23659420600006, -0.22682342499996366], [36.23728085300007, -0.22784882899992454], [36.23793548700007, -0.22888786599997957], [36.23887078800004, -0.23134815499997785], [36.23915427900005, -0.2320967249999626], [36.24057293300007, -0.23606098499993777], [36.241559307000045, -0.23883154899993997], [36.24358736800008, -0.24452738799993767], [36.24417671800006, -0.24636977699992713], [36.24438031200003, -0.24728986199994551], [36.246086121000076, -0.2526143489999413], [36.244972517000065, -0.25314081199996963], [36.243733003000045, -0.25371014299997796], [36.23527362600004, -0.25752599999992754], [36.227093807000074, -0.2611581729999557], [36.21865758600006, -0.2649438849999797], [36.21282196000004, -0.2675335409999775], [36.21288065500005, -0.26884763099997144], [36.21294901600004, -0.2702940399999534], [36.21332345400003, -0.27849906899996313], [36.21346410500007, -0.2816090369999529], [36.213666588000024, -0.2872416669999325], [36.21391033000003, -0.29224067599994896], [36.21537298800007, -0.2990367599999786], [36.21669437500003, -0.30525388899997097], [36.217969985000025, -0.31114844799992625], [36.21926085400003, -0.3172263339999404], [36.220565075000025, -0.3235291069999562], [36.22125596500007, -0.32665216399993824], [36.22146394300006, -0.3276504349999527], [36.22168707900005, -0.32868325699996603], [36.222851854000055, -0.3341471969999361], [36.22326951400004, -0.3361491199999591], [36.22358525200008, -0.33764498499994033], [36.22377295500007, -0.3384884999999258], [36.22399003500004, -0.33931400099993425], [36.22453342000006, -0.3414175289999548], [36.22470498300004, -0.3423224779999714], [36.22501889100005, -0.3440939469999762], [36.22534929900007, -0.34496182399993813], [36.225813783000035, -0.3457550739999533], [36.22872591600003, -0.35100037799998063], [36.229560879000076, -0.34954421299994465], [36.23007703900004, -0.3484804279999594], [36.230410653000035, -0.347658484999954], [36.23053761700004, -0.34688199599997915], [36.23068526800006, -0.3460724119999554], [36.23077448500004, -0.3450337699999295], [36.23050944000005, -0.34369810399994094], [36.230776469000034, -0.34245482099993296], [36.23118877400003, -0.3417519109999603], [36.231965383000045, -0.34146536899993407], [36.23292790000005, -0.34168083599996635], [36.23404117200005, -0.34171136799994883], [36.23526609800007, -0.3419366919999334], [36.23620982800003, -0.34201181399993175], [36.23739085200003, -0.3418707309999718], [36.23837103900007, -0.342064425999979], [36.23918095400006, -0.34242558599993345], [36.24018132000003, -0.34268164299993487], [36.24304754600007, -0.3440846649999685], [36.244163952000065, -0.3440933719999748], [36.24504852300004, -0.3446201379999252], [36.245988210000064, -0.34470339599994304], [36.24681323600004, -0.34441709899994066], [36.247842072000026, -0.3441133959999547], [36.248939912000026, -0.34371395899995605], [36.249855883000066, -0.3431443979999358], [36.25239906500008, -0.34025658499996325], [36.262999388000026, -0.34082692899994527], [36.26506620400005, -0.348661080999932], [36.26669399300005, -0.35535898499995255], [36.26758649800007, -0.35885073699995473], [36.268400393000036, -0.36176410499996337], [36.27026401300003, -0.36916179899992585], [36.271999022000045, -0.37585254999993367], [36.27386264200004, -0.38305745399992475], [36.27578729800007, -0.39043404699992834], [36.29297227400008, -0.37133970399997906], [36.31114649800003, -0.36673191499994573], [36.313869476000036, -0.38383790899996484], [36.31477257900008, -0.3838835119999544], [36.31561110100006, -0.38397971799997777], [36.32265572400007, -0.3849354229999449], [36.33336196800008, -0.3868352279999385], [36.33430877300003, -0.38673395799997934], [36.342755544000056, -0.3832359529999394], [36.36020851200004, -0.3760568349999289], [36.36046127800006, -0.3771431429999552], [36.36065889100007, -0.3784535549999646], [36.36089267700004, -0.37973755399997344], [36.361137374000066, -0.38069444299992483], [36.361303047000035, -0.38144884999996975], [36.36150969400006, -0.38237498299997696], [36.361794032000034, -0.3833940549999397], [36.36214251100006, -0.3845012829999632], [36.36230687200003, -0.38563322099997777], [36.36235994400005, -0.38640633699992577], [36.362791540000046, -0.3871150529999454], [36.36337298300003, -0.3879386759999761], [36.36393285200006, -0.38872261299997035], [36.364146927000036, -0.3894632669999396], [36.36451555200006, -0.39049241099996834], [36.364599584000075, -0.39182651499993426], [36.364996494000025, -0.39344921399992927], [36.365591282000025, -0.3941483079999557], [36.36628579000006, -0.39505253099997617], [36.36747630000008, -0.39603990599994177], [36.36834386100003, -0.3964060559999325], [36.369206502000054, -0.396671165999976], [36.370091365000064, -0.3972786089999545], [36.37091913900008, -0.3979868989999318], [36.37212217700005, -0.39847820699992553], [36.373004836000064, -0.3991766569999413], [36.37397439600005, -0.399684241999978], [36.37502715100004, -0.40026773399995363], [36.37584479100008, -0.400753209999948], [36.376899252000044, -0.40146888299995], [36.377953940000054, -0.40219574699995064], [36.37832158900005, -0.40300760799993895], [36.37880742900006, -0.4041040589999625], [36.37922882300006, -0.40508876799992777], [36.37950590400004, -0.40585449699995024], [36.379856303000054, -0.40664326499995695], [36.38035840800006, -0.40779848999994783], [36.38052651000004, -0.4092419759999757], [36.38028033200004, -0.410138207999978], [36.38016730100003, -0.4109512149999546], [36.37991140400004, -0.41201237199993557], [36.37965819300007, -0.4133554259999528], [36.37956566200006, -0.4143616369999563], [36.37980718400007, -0.4157988419999583], [36.37999784200008, -0.417051009999966], [36.37996904900007, -0.4183981699999322], [36.379553129000044, -0.4200858039999389], [36.379902033000064, -0.4214503069999296], [36.38038638900008, -0.4224304869999287], [36.38077677200005, -0.4231435569999462], [36.38122863800004, -0.4239528179999752], [36.382334961000026, -0.4237268039999549], [36.38330564300003, -0.42398839299994506], [36.384155906000046, -0.4242165469999577], [36.38534600400004, -0.4245246949999455], [36.38608678200006, -0.42538096499993117], [36.385570088000065, -0.4263054879999686], [36.38608332200005, -0.42723496999997224], [36.38614381000008, -0.4286263169999529], [36.386560393000025, -0.4300064239999415], [36.38636390200003, -0.43132318099992517], [36.38661119000005, -0.4322146349999798], [36.386877783000045, -0.43295823599993355], [36.38735973300004, -0.43391298399996003], [36.38748428500003, -0.4350352719999364], [36.387323243000026, -0.43593773799995006], [36.387262031000034, -0.4367480259999752], [36.38715848100003, -0.43765671399995654], [36.38784818800008, -0.438238331999969], [36.387933442000076, -0.4390042349999703], [36.38839734100003, -0.43991192199996476], [36.38910221000003, -0.44105087599996295], [36.389104349000036, -0.4420136969999362], [36.388867498000025, -0.44293861699992476], [36.38880907600003, -0.4437771199999361], [36.389051649000066, -0.4453706149999448], [36.38864254300006, -0.44644431399996165], [36.388500141000065, -0.44756419399993774], [36.388358534000076, -0.44910914999996976], [36.38806520900005, -0.45043858499997214], [36.38831395100004, -0.4513550919999716], [36.38857616100006, -0.4525523379999754], [36.38727765400006, -0.4533711089999315], [36.38666750300007, -0.45545035499992537], [36.38645058100008, -0.45654164499995886], [36.38671198600008, -0.4573131999999305], [36.387041553000074, -0.45833302799997], [36.386798353000074, -0.4596761219999621], [36.386992296000074, -0.46073274799994124], [36.38864719500003, -0.4617837209999607], [36.38908099200006, -0.46257913199997347], [36.389794884000025, -0.4629950319999807], [36.390822411000045, -0.46337380199997824], [36.39089784200007, -0.4642737659999625], [36.391049354000074, -0.46522522499992647], [36.391442158000075, -0.46632098599997107], [36.39167973700006, -0.46752872399997614], [36.392081329000064, -0.46845389099996737], [36.39254582600006, -0.46955706399995734], [36.39325542900008, -0.47068112699997755], [36.394434929000056, -0.4711439459999269], [36.39505195600003, -0.47188278999993827], [36.39521745300004, -0.4727629499999466], [36.39470946300003, -0.4734387809999703], [36.39322688000004, -0.47500679499995613], [36.39360856800005, -0.4757403859999272], [36.393591884000045, -0.4765070929999524], [36.393501542000024, -0.4773009619999584], [36.39397103600004, -0.47824635999995735], [36.39426720500006, -0.479440459999978], [36.39509316400006, -0.4808331829999588], [36.39531391400004, -0.4819106999999576], [36.39548369100004, -0.4828002219999803], [36.395974711000065, -0.4836143619999689], [36.39620015400004, -0.48471455499992544], [36.39674447500005, -0.48547693699993033], [36.39744341800008, -0.4864699699999733], [36.398067885000046, -0.4873880279999412], [36.39782529200005, -0.488461713999925], [36.39773470200004, -0.4893738669999266], [36.39734514700007, -0.49169132199995147], [36.39715987500006, -0.4926933339999664], [36.39729700700008, -0.4934764999999288], [36.39683280500003, -0.49449673299994856], [36.39707019100007, -0.49538441299995384], [36.39721615700006, -0.4965715189999287], [36.39747483100007, -0.49763333099997453], [36.39724607900007, -0.4987016539999445], [36.39725029400006, -0.49970868599996265], [36.39786599200005, -0.5002104139999801], [36.398694223000064, -0.5006647189999285], [36.39949456800008, -0.5014614849999361], [36.400699849000034, -0.5024646659999803], [36.401932991000024, -0.5030813109999599], [36.402748108000026, -0.503880679999952], [36.402527528000064, -0.5046453649999307], [36.40280097200008, -0.5057136719999562], [36.402795189000074, -0.5068264759999579], [36.40292895300007, -0.50805358599996], [36.40322390800003, -0.5089872419999324], [36.40227916500004, -0.5110653939999565], [36.401776538000036, -0.5117393799999377], [36.40154901100004, -0.5125701599999388], [36.401268533000064, -0.5134117329999413], [36.400651449000065, -0.5140769869999531], [36.40125418100007, -0.515045506999968], [36.402202260000024, -0.5159162359999527], [36.40337843200007, -0.5171988119999469], [36.40404506700003, -0.5180704569999648], [36.404699909000044, -0.5190315729999497], [36.40519023500008, -0.5200261479999426], [36.405162063000034, -0.521174698999971], [36.40544167000007, -0.5220404729999473], [36.40467808900007, -0.5227451849999625], [36.40372392100005, -0.5233589199999642], [36.40370843300008, -0.5243492529999685], [36.403181939000035, -0.525068876999967], [36.40240653400008, -0.5256057029999397], [36.40174210600003, -0.5261107439999364], [36.401390750000076, -0.526797581999972], [36.40126681000004, -0.5278340659999685], [36.40096441000003, -0.529180457999928], [36.400867247000065, -0.5300549429999251], [36.40076185700008, -0.530990031999977], [36.400610190000066, -0.5322671359999731], [36.40054934900007, -0.53332729899995], [36.401198468000075, -0.5352171959999623], [36.402112112000054, -0.5358839709999756], [36.40286073100003, -0.536387212999955], [36.40399639100008, -0.5379378149999638], [36.40399969500004, -0.5389540179999699], [36.40407371900005, -0.540798299999949], [36.403647025000055, -0.5420498689999249], [36.40306737100008, -0.54343186899996], [36.40288067600005, -0.544444470999963], [36.40376829100006, -0.5463614619999362], [36.40468744400005, -0.5474264919999428], [36.40529309800007, -0.5483911399999783], [36.40585657500003, -0.5493160939999484], [36.406049034000034, -0.5507920289999788], [36.40582017400004, -0.5518189919999372], [36.40487094000008, -0.5531478079999488], [36.40388025900006, -0.555244279999954], [36.403683673000046, -0.5566774609999356], [36.40368789100006, -0.5578250669999534], [36.40343504600003, -0.5590086249999331], [36.40388065800005, -0.5600387539999474], [36.404292584000075, -0.5610762409999666], [36.40451302800005, -0.5618303719999744], [36.40449947500008, -0.5627843639999242], [36.404416438000055, -0.5640286889999402], [36.40374991500005, -0.565761972999951], [36.40425046300004, -0.5667687549999414], [36.40396499700006, -0.5679870839999808], [36.40301329300007, -0.5685574629999337], [36.40290398700006, -0.5697487449999699], [36.40326945000004, -0.57068647899996], [36.40473945400004, -0.5710136119999447], [36.40568051100007, -0.5721930349999411], [36.40700116800008, -0.5728779839999447], [36.42163044000006, -0.571132185999943], [36.43119859900003, -0.5698236269999484], [36.432132627000044, -0.5695959939999398], [36.434835589000045, -0.5692266049999262], [36.44327545200008, -0.5679990049999333], [36.444602334000024, -0.5673003779999704], [36.44589508900003, -0.5666365379999547], [36.45146116500007, -0.5636197029999721], [36.45303745600006, -0.5786207389999731], [36.453682686000036, -0.585362957999962], [36.45542001200005, -0.6033569709999256], [36.45572219100006, -0.6074255719999542], [36.456249995000064, -0.6101647989999606], [36.46305378300008, -0.6185894649999568], [36.46801044800003, -0.6245420709999507], [36.484852373000024, -0.6229359179999392], [36.48970558700006, -0.622386775999928], [36.50003408400005, -0.621530287999974], [36.50609970100004, -0.620890974999952], [36.506672707000064, -0.6198480439999798], [36.50727078400007, -0.6186768869999355], [36.51009428000003, -0.6126198939999767], [36.51208744000007, -0.608924692999949], [36.51189342600003, -0.6104984209999316], [36.512295737000045, -0.6113878999999542], [36.51245890000007, -0.6125016829999481], [36.51224558400003, -0.6136546729999282], [36.51198436000004, -0.6148613969999701], [36.51224656100004, -0.6157456029999366], [36.512539385000025, -0.6168423359999338], [36.512281690000066, -0.6177190369999721], [36.51239318800003, -0.6184994699999606], [36.51289420200004, -0.6192070249999801], [36.51356937800006, -0.6199692399999321], [36.51393419500005, -0.6207948969999393], [36.515650219000065, -0.6226099229999704], [36.516652383000064, -0.6230697039999313], [36.51782120900003, -0.6232635359999676], [36.518893889000026, -0.6235169649999648], [36.51988540200006, -0.6237275659999568], [36.51906083700004, -0.6249519919999784], [36.518151067000076, -0.6256024949999528], [36.51729430300003, -0.6264977009999484], [36.51615257800006, -0.6274030909999624], [36.51626116700004, -0.6282687019999571], [36.51630854100006, -0.6291807229999336], [36.516577046000066, -0.630322562999936], [36.51760819500004, -0.6310556889999361], [36.51856428900004, -0.6317057209999462], [36.51941803600005, -0.6322750259999452], [36.52011035500004, -0.6326850739999372], [36.52106392200005, -0.633674502999952], [36.52190011600004, -0.6344092519999549], [36.52321550000005, -0.6343689349999408], [36.52389546000006, -0.6350933389999796], [36.52453908900003, -0.6360582649999742], [36.52450933500006, -0.6370911659999479], [36.52470108500006, -0.6382510179999485], [36.52502232900008, -0.6395391799999288], [36.525271718000056, -0.6405348099999628], [36.52569407000004, -0.641452863999973], [36.52620491400006, -0.6425436599999443], [36.52636382900005, -0.6437529799999311], [36.52621692900004, -0.6445063989999653], [36.52611380400003, -0.6454217259999382], [36.526377678000074, -0.6464334129999543], [36.52617454500006, -0.6472480199999495], [36.521233220000056, -0.6509079699999347], [36.53080540700006, -0.6694609059999266], [36.533034557000065, -0.6735633919999486], [36.53898682400006, -0.68487810299996], [36.54415973700003, -0.6946031619999644], [36.528415221000046, -0.7041269189999753], [36.52097579700006, -0.7075478659999703], [36.52100838500007, -0.7083981499999368], [36.52422667400003, -0.7150324429999273], [36.52517078300008, -0.7167407269999444], [36.52571774300003, -0.7177415449999671], [36.52671367700003, -0.7195975199999793], [36.527494328000046, -0.7210479139999393], [36.52790377900004, -0.7217999159999522], [36.52919669100004, -0.7241007049999553], [36.52949414400007, -0.7248399689999587], [36.529929260000074, -0.72580314399994], [36.53035374500007, -0.7269813439999666], [36.53073342400006, -0.7281818499999417], [36.53114614200007, -0.7293974659999662], [36.53303265000005, -0.7365289819999248], [36.536031826000055, -0.7474636819999319], [36.53687388700007, -0.7500051729999768], [36.53719304800006, -0.7510307609999245], [36.53838858700004, -0.7556238069999495], [36.538661184000034, -0.7567511139999397], [36.53895467700005, -0.7578706879999686], [36.53964380700006, -0.7600637139999549], [36.54021145200005, -0.7621667549999529], [36.540450072000056, -0.7630928709999694], [36.54064221500005, -0.7640484259999312], [36.54089421300006, -0.7651821679999671], [36.54221982300004, -0.7705244419999531], [36.54290320000007, -0.7733648469999252], [36.543605023000055, -0.7760064159999729], [36.54391022200008, -0.7771008499999539], [36.54519065100004, -0.7812971129999369], [36.54550556200007, -0.7824120409999296], [36.54668575300008, -0.7880754549999551], [36.54842498700003, -0.7943188459999533], [36.548924560000046, -0.7965000679999434], [36.54914550400008, -0.797356433999937], [36.54936426800003, -0.7982089149999751], [36.550064220000024, -0.8012870699999439], [36.55248301600005, -0.8109841799999344], [36.55355562900007, -0.8150383859999693], [36.55427756200004, -0.8179894689999401], [36.55568518900003, -0.823756153999966], [36.557163796000054, -0.8292618859999266], [36.55901934600007, -0.8356124349999732], [36.55948319500004, -0.8366028179999603], [36.560148507000065, -0.8375473559999591], [36.561509313000045, -0.8398157429999742], [36.56046060400007, -0.8413569579999489], [36.55997432600003, -0.8420468779999624], [36.559458078000034, -0.8428004649999252], [36.55485031300003, -0.8493259429999398], [36.552588858000036, -0.8525610919999735], [36.55306721100004, -0.860250778999955], [36.55370558200008, -0.8649674089999735], [36.554120305000026, -0.8679986589999658], [36.55432896000008, -0.8692649239999355], [36.55452728300003, -0.8705243759999348], [36.553088192000075, -0.8751511209999308], [36.55186830300005, -0.8798865279999291], [36.54753682100005, -0.8949922249999531], [36.54707076600005, -0.8972894919999703], [36.54426909700004, -0.9058928149999588], [36.554402218000064, -0.9185844179999663], [36.55423560100007, -0.9241618919999723], [36.55929328000008, -0.9244659809999689], [36.56026257900004, -0.9246990219999702], [36.562148371000035, -0.9253524159999529], [36.56393092800005, -0.9260694849999709], [36.56503611800008, -0.926126404999934], [36.56581427800006, -0.9260203469999624], [36.566959197000074, -0.9260609439999712], [36.56839460600003, -0.9266327099999785], [36.56935707900004, -0.9271248269999433], [36.57007432000006, -0.9275335489999748], [36.572650002000046, -0.9296684579999805], [36.56987289600005, -0.9312511859999404], [36.56644470300006, -0.9333045589999642], [36.56557035700007, -0.9338390629999367], [36.56453830700008, -0.9345145329999696], [36.56168230700007, -0.9366024699999684], [36.564494979000074, -0.9395505039999534], [36.569128309000064, -0.9432429679999359], [36.57182834200006, -0.942561014999967], [36.57290277300007, -0.9422875309999768], [36.57372742100006, -0.9421450809999783], [36.57492446900005, -0.9419862029999422], [36.57781305000003, -0.9437472779999325], [36.57876869000006, -0.94461049399996], [36.57946027500003, -0.9454662419999522], [36.58005063300004, -0.9465789049999671], [36.58103472500005, -0.948512366999978], [36.582465858000035, -0.9515399559999764], [36.58290895600004, -0.9523646749999557], [36.58367223000005, -0.9537196359999598], [36.58419240100005, -0.9546673389999683], [36.58491808600007, -0.9561435949999577], [36.58525475000005, -0.9568575559999317], [36.58556085200007, -0.9575849769999536], [36.58622256900003, -0.9592694789999427], [36.58667703300006, -0.9605751589999727], [36.58718124400008, -0.9616403409999634], [36.587823376000074, -0.962922108999976], [36.58764778900007, -0.9660595269999703], [36.58726578300008, -0.969730998999978], [36.587181403000045, -0.9705483999999274], [36.58710693800003, -0.9713709109999513], [36.58684152400008, -0.9740297029999283], [36.58733226900006, -0.9757952629999522], [36.58774453900003, -0.9766732039999511], [36.58841206200003, -0.9777356309999732], [36.589804908000076, -0.9805366499999764], [36.59020774700008, -0.9813107669999681], [36.59070587200006, -0.9821707609999635], [36.59166336100003, -0.9833192519999443], [36.59289709700005, -0.983075122999935], [36.59404010800006, -0.9828993789999458], [36.59608023200008, -0.9827867189999324], [36.598229693000064, -0.9906780829999775], [36.599496842000065, -0.9906023139999434], [36.59998703000008, -0.9914464059999659], [36.59873390200005, -0.9922848639999415], [36.597778722000044, -0.9926550249999764], [36.597273065000024, -0.993335740999953], [36.59664913200004, -0.995203068999956], [36.59644536300004, -0.9969238019999693], [36.59634082200006, -0.9979115779999574], [36.59628854600004, -0.9988202219999494], [36.596080605000054, -1.0003381439999544], [36.59531957300004, -1.004564018999929], [36.59513810000004, -1.0055296429999316], [36.59505588400003, -1.006377013999952], [36.59504315200007, -1.0083119619999366], [36.59510145200005, -1.0093212389999735], [36.59457427500007, -1.0101125669999647], [36.59366330800003, -1.0129081429999474], [36.59283987600003, -1.0166649469999243], [36.59145323100006, -1.0227206309999701], [36.58967012800008, -1.030595246999951], [36.58844261100006, -1.0363229509999314], [36.58801962100006, -1.0407488259999695], [36.58824325200004, -1.041889777999927], [36.588571966000075, -1.0427739359999464], [36.58938189300005, -1.0447245909999765], [36.58965177500005, -1.0454546119999577], [36.59016455600005, -1.04749286699996], [36.59044568400003, -1.0488526259999276], [36.59062464100003, -1.0503583759999628], [36.59127223000007, -1.0588443149999307], [36.59114780700003, -1.061980708999954], [36.58905732300008, -1.065635871999973], [36.586508010000045, -1.0702103939999574], [36.58072600600008, -1.0809700439999688], [36.578240453000035, -1.0855538549999437], [36.573509673000046, -1.0938444709999544], [36.571644555000034, -1.0973091849999719], [36.56989288300008, -1.100517510999964], [36.56894496000007, -1.0997925179999584], [36.566952137000044, -1.0986451419999526], [36.56266728700007, -1.1036405609999633], [36.557874285000025, -1.1091786419999607], [36.55349459400003, -1.1143409259999544], [36.548074306000046, -1.1204594929999416], [36.54571497400008, -1.1231011209999338], [36.54510267100005, -1.1238672719999272], [36.544653115000074, -1.1247688159999711], [36.541699091000055, -1.1348960799999759], [36.53834340100008, -1.1480205959999807], [36.53675378300005, -1.1525783339999407], [36.53334357800003, -1.149743444999956], [36.53228269500005, -1.1488765879999505], [36.528878844000076, -1.1461864799999262], [36.52648062000003, -1.1444580269999278], [36.522676244000024, -1.1415172299999767], [36.518621694000046, -1.138292855999964], [36.51779221700008, -1.1376385709999681], [36.514654488000076, -1.1351671499999725], [36.505831347000026, -1.1282686039999703], [36.50268639400008, -1.125944987999958], [36.496872833000054, -1.1215067799999474], [36.49616121400004, -1.1209679339999639], [36.495383537000066, -1.1204264829999602], [36.49415209500006, -1.1196070519999353], [36.49320133100008, -1.1190017069999385], [36.48606979600004, -1.1154932759999383], [36.48506938400004, -1.1149950349999358], [36.47811832800005, -1.1115343759999519], [36.46763920800004, -1.1063023229999658], [36.46664835200005, -1.1058028129999684], [36.46556965100007, -1.1052797109999801], [36.46324152100004, -1.1041494979999698], [36.460025924000036, -1.1025822699999708], [36.45916782100005, -1.1021642619999739], [36.458349517000045, -1.1017714439999509], [36.45188432500004, -1.0985965379999243], [36.43952933500003, -1.093338451999955], [36.438583738000034, -1.092929943999934], [36.43768498400004, -1.0925254269999414], [36.43507291800006, -1.0913987419999671], [36.42441899000005, -1.0864616189999765], [36.40885798800008, -1.0791223889999628], [36.397815233000074, -1.073929527999951], [36.39071715600005, -1.0706432609999297], [36.38181581300006, -1.0664367139999626], [36.371697579000056, -1.061737753999978], [36.35471560000008, -1.0537230829999658], [36.33587579700003, -1.0435478659999262], [36.333175797000024, -1.0397478659999706], [36.33147371700005, -1.0372546469999406], [36.33071171300003, -1.035836437999933], [36.33030526700003, -1.0350873979999733], [36.32941395300003, -1.033633454999972], [36.328851986000075, -1.0324774499999307], [36.32812467200006, -1.0309723019999524], [36.327788792000035, -1.0295855999999617], [36.32710235900004, -1.0290508489999297], [36.32649123200008, -1.0282378249999624], [36.32544610700006, -1.0266145649999316], [36.32437908400004, -1.0246727399999713], [36.323653069000045, -1.023412852999968], [36.32314105800003, -1.0224099439999463], [36.321433022000065, -1.0193562189999739], [36.31869187900003, -1.0138942809999776], [36.31627579700006, -1.0090478659999462], [36.31427579700005, -1.0052478659999338], [36.31231031100003, -1.0022758099999578], [36.310775797000076, -0.9987478659999738], [36.30907579700005, -0.9956478659999561], [36.30747579700005, -0.9923478659999319], [36.304975797000054, -0.9876478659999748], [36.30277579700004, -0.9835478659999808], [36.30147579700008, -0.9810478659999262], [36.29747579700006, -0.9738478659999714], [36.293875797000055, -0.967147865999948], [36.29167579700004, -0.963047865999954], [36.29007579700004, -0.9599478659999363], [36.28827579700004, -0.9568478659999755], [36.28567579700007, -0.9523478659999682], [36.282475797000075, -0.9465478659999462], [36.28015896800008, -0.9430704779999246], [36.27797579700007, -0.9385478659999649], [36.275075797000056, -0.9328478659999746], [36.27229009000007, -0.9287429599999655], [36.27043473400005, -0.925423857999931], [36.26967579700005, -0.9230478659999335], [36.26857579700004, -0.9208478659999741], [36.26697579700004, -0.9181478659999698], [36.26567579700003, -0.9153478659999337], [36.26407579700003, -0.912747865999961], [36.258775797000055, -0.9138478659999691], [36.25437579700008, -0.9149478659999772], [36.24987579700007, -0.9165478659999735], [36.24647579700007, -0.9177478659999565], [36.24217579700007, -0.9193478659999528], [36.235575797000024, -0.921547865999969], [36.233075797000026, -0.9224478659999704], [36.222275797000066, -0.9261478659999511], [36.21827579700005, -0.9274478659999659], [36.21497579700008, -0.928547865999974], [36.21047579700007, -0.9299478659999636], [36.20607579700004, -0.9313478659999532], [36.20377579700005, -0.9282478659999356], [36.20187579700007, -0.9251478659999748], [36.19877579700005, -0.9196478659999343], [36.19667579700007, -0.9163478659999669], [36.194875797000066, -0.9130478659999426], [36.19207579700003, -0.9129478659999677], [36.18762596600004, -0.9127089679999472], [36.18607579700006, -0.9114478659999463], [36.18777579700003, -0.9093478659999619], [36.189555290000044, -0.9067565599999625], [36.18902700700005, -0.9054028759999255], [36.18867579700003, -0.9039478659999531], [36.18714539000007, -0.9020687579999276], [36.186824527000056, -0.9012718269999596], [36.185845157000074, -0.8994480239999803], [36.18472850400008, -0.897325518999935], [36.18414381900004, -0.8962387599999602], [36.18353800500006, -0.8951222379999422], [36.182528131000026, -0.8932275669999399], [36.18126152600007, -0.8908979829999453], [36.18049835800008, -0.8896450269999718], [36.17962226700007, -0.8879334169999424], [36.17853639600003, -0.8861240889999635], [36.17771881400006, -0.8846341589999724], [36.17652202000005, -0.8823356559999525], [36.17419592500005, -0.8781505529999549], [36.17288949700003, -0.87576474399998], [36.17237524800004, -0.8749081119999573], [36.17129094500007, -0.872539738999933], [36.17092363200004, -0.8717697439999483], [36.16972239100005, -0.8689312779999341], [36.16941176200004, -0.8680365469999742], [36.167686124000056, -0.862813143999972], [36.16671131800007, -0.8596897369999397], [36.16482317200007, -0.8538329639999347], [36.16319446000006, -0.8487896649999698], [36.162778256000024, -0.8477129939999486], [36.16128377200005, -0.843273154999963], [36.16003753000007, -0.8395268549999741], [36.159058567000045, -0.8365792459999284], [36.167375425000046, -0.8276041909999776], [36.17452115200007, -0.8202156059999766], [36.17763077200004, -0.8170003009999505], [36.178203318000044, -0.8164082959999632], [36.18457684100008, -0.80973869099995], [36.18544314800005, -0.8089521419999528], [36.18674561900008, -0.8074777439999252], [36.187791892000064, -0.8062656249999804], [36.18928235100003, -0.804624796999974], [36.19133185600003, -0.787503375999961], [36.19150647200007, -0.786044656999934], [36.19166434700003, -0.7847257779999381], [36.19066876100004, -0.7837928519999764], [36.19077579700007, -0.7823478659999523], [36.18777579700003, -0.7798478659999546], [36.185529924000036, -0.7779336779999539], [36.18437579700003, -0.7754478659999791], [36.18667579700008, -0.7724478659999363], [36.18927579700005, -0.7691478659999689], [36.19011050600005, -0.7659190269999385], [36.19084665500003, -0.7653559289999521], [36.19107100900004, -0.7645561529999441], [36.19187579700008, -0.7627478659999269], [36.18897579700007, -0.7628478659999587], [36.186575797000046, -0.7605478659999676], [36.184575797000036, -0.7589478659999713], [36.182875797000065, -0.7566478659999802], [36.177975797000045, -0.7542478659999574], [36.17437579700004, -0.752147865999973], [36.17157579700006, -0.7512478659999715], [36.170644208000056, -0.7502017819999764], [36.170171750000065, -0.7489528179999638], [36.168963579000035, -0.7477282339999647], [36.16791208700005, -0.7475924379999697], [36.16702958400003, -0.7475355919999629], [36.16619402300006, -0.74761138599996], [36.16557439400003, -0.7471566229999667], [36.164499431000024, -0.7464034209999681], [36.163339972000074, -0.7464555289999453], [36.16259829400008, -0.7459154969999418], [36.161817186000064, -0.7449870229999647], [36.16122818100007, -0.7440237209999623], [36.16083641900008, -0.7431079649999788], [36.16003602400008, -0.7421622849999494], [36.159913233000054, -0.7410994269999378], [36.16017728600008, -0.7399735679999253], [36.16024532700004, -0.7388747159999411], [36.16002922300004, -0.7381119759999706], [36.159955653000054, -0.7357388699999774], [36.15999929000003, -0.7347308549999525], [36.15956708900006, -0.7339910049999503], [36.159276789000046, -0.733089376999942], [36.15910086400004, -0.7320504379999306], [36.157175797000036, -0.728147865999972], [36.154868316000034, -0.7250932429999466], [36.15455154400007, -0.7240004529999737], [36.154134819000035, -0.7227457649999565], [36.15398456600008, -0.7216588979999301], [36.153641417000074, -0.7196616249999579], [36.15422390400005, -0.7189233919999651], [36.154505554000025, -0.7178243799999677], [36.15461821400004, -0.7163729109999508], [36.154175284000075, -0.7154222309999341], [36.15357579700003, -0.7126478659999407], [36.15077579700005, -0.7114478659999577], [36.14867579700007, -0.710047865999968], [36.146575797000025, -0.7091478659999666], [36.14367579700007, -0.7095478659999799], [36.14267579700004, -0.7119478659999459], [36.13897579700006, -0.7097478659999297], [36.13207579700003, -0.7035478659999512], [36.13017579700005, -0.7017478659999483], [36.127475797000045, -0.6992478659999506], [36.125775797000074, -0.6976478659999543], [36.122375797000075, -0.6947478659999433], [36.119475797000064, -0.6921478659999707], [36.115775797000026, -0.6888478659999464], [36.11237579700003, -0.6857478659999288], [36.10787579700008, -0.6817478659999665], [36.10417579700004, -0.6783478659999673], [36.10001666100004, -0.6745319739999331], [36.099886378000065, -0.6736509479999313], [36.09966617400005, -0.6711365849999424], [36.09939168000005, -0.6677383849999501], [36.09914433700004, -0.6642390529999602], [36.09891845200008, -0.6586885689999349], [36.09855922300005, -0.6523369969999635], [36.09845262700003, -0.6511490239999489], [36.09806113900004, -0.6460935689999587], [36.09809029000007, -0.6449424729999578], [36.09798639300004, -0.6428324749999774], [36.09786267100003, -0.6417901329999722], [36.09757688900004, -0.6408094629999255], [36.09585350400005, -0.6412239399999748], [36.094768318000035, -0.6416373319999593], [36.09319993300005, -0.6423911189999671], [36.09212595900004, -0.6430470859999673], [36.09138916100005, -0.6435724809999783], [36.09043139100004, -0.6440844349999679], [36.08932311800004, -0.6447858719999431], [36.08859760300004, -0.645274828999959], [36.086077051000075, -0.6464057279999338], [36.074846818000026, -0.6518922379999594], [36.06482659200003, -0.6571016339999574], [36.052465519000066, -0.6638839439999629], [36.05002529300003, -0.6654911339999785], [36.04752215900004, -0.667167873999972], [36.03997009500006, -0.6724184059999629], [36.029082481000046, -0.6794767789999696], [36.02783178900006, -0.6779242989999261], [36.02677260200005, -0.6767787739999562], [36.024089221000054, -0.6739861619999488], [36.021137312000064, -0.6718495479999547], [36.01587178400007, -0.6677995889999693], [36.01448180800003, -0.666837404999967], [36.013374095000074, -0.6651206409999304], [36.01225151600005, -0.6639196709999737], [36.000922281000044, -0.673396324999942], [35.994428146000075, -0.677934918999938], [35.987393000000054, -0.682440516999975], [35.981768346000024, -0.6867359359999341], [35.98069586200006, -0.6877780399999551], [35.97777680100006, -0.6898158579999745], [35.97569696900007, -0.69154320399997], [35.973133705000066, -0.6935135279999258], [35.96864661200004, -0.696992216999945], [35.96742758700003, -0.6979931279999505], [35.96581381500005, -0.6996515059999524], [35.96480932400004, -0.7004551149999543], [35.96397251500008, -0.7007608799999616], [35.96308742600007, -0.7013344339999321], [35.961981974000025, -0.7022442479999427], [35.960255560000064, -0.7035891089999495], [35.959061778000034, -0.7045592409999699], [35.95312533200007, -0.7089887249999265], [35.950016075000065, -0.7113025429999311], [35.94875104100004, -0.7122410439999385], [35.947927658000026, -0.712853235999944], [35.94680815900006, -0.7137562189999471], [35.93490891000005, -0.7077182619999576], [35.93393038900007, -0.7072448049999593], [35.93139883600003, -0.7057454389999407], [35.93171422300003, -0.7037876889999666], [35.932145121000076, -0.7016256879999787], [35.93224685300004, -0.7004501739999682], [35.93224685300004, -0.6993640109999433], [35.931491110000024, -0.6977997489999552], [35.93047579700004, -0.6944478659999618], [35.928075797000076, -0.6909478659999309], [35.92557579700008, -0.6882478659999265], [35.92347579700004, -0.685547865999979], [35.922275797000054, -0.6839478659999259], [35.92067579700006, -0.682047865999948], [35.91817579700006, -0.6787478659999806], [35.91557579700003, -0.6755478659999312], [35.91157579700007, -0.6706478659999675], [35.90637579700007, -0.663947865999944], [35.899175797000055, -0.6549478659999295], [35.89757579700006, -0.6530478659999517], [35.895175797000036, -0.6498478659999591], [35.893175797000026, -0.6471478659999548], [35.889475797000046, -0.6474478659999363], [35.88557579700006, -0.6477478659999747], [35.878374664000034, -0.6482868429999371], [35.87824703100006, -0.6474231759999611], [35.87805641500006, -0.646396210999967], [35.87788141400006, -0.6455270719999362], [35.87773753000005, -0.6446838559999719], [35.87756060900006, -0.643640348999952], [35.87736470800007, -0.6425657029999456], [35.87716755300005, -0.6414503189999436], [35.876919531000055, -0.6400783949999322], [35.876780463000046, -0.6392285999999672], [35.87664835800007, -0.6384687969999732], [35.88561660200003, -0.6376498259999721], [35.89207021800007, -0.6374235739999676], [35.902860039000075, -0.6368179339999642], [35.91075261000003, -0.6363799309999649], [35.91698169600005, -0.6359461949999741], [35.92399105900006, -0.6420144189999633], [35.93489184400005, -0.6517028829999276], [35.93979010800007, -0.6561029229999349], [35.94104874400006, -0.6571705339999312], [35.95159025100003, -0.6664179579999541], [35.952174263000074, -0.6657270189999736], [35.953026281000064, -0.6648650959999713], [35.95508732300004, -0.6625423039999419], [35.95617434600007, -0.6613204129999417], [35.957317369000066, -0.659939536999957], [35.95799690700005, -0.6592000329999337], [35.95965941800006, -0.6573907649999455], [35.96077344100007, -0.6561628739999605], [35.96189296400007, -0.655024975999936], [35.96275807100005, -0.6541563239999277], [35.96733357700003, -0.6493264849999605], [35.97612936400003, -0.6391112389999307], [35.97730456100004, -0.638241867999966], [35.983319960000074, -0.6315464289999682], [35.982086148000064, -0.6285765919999449], [35.98117579700005, -0.6260478659999649], [35.97927579700007, -0.6222478659999524], [35.977875797000024, -0.6191478659999348], [35.97557579700003, -0.6145478659999526], [35.97287579700003, -0.609047865999969], [35.96987579700004, -0.6028478659999337], [35.96837579700008, -0.5999478659999795], [35.966516424000076, -0.5969590919999632], [35.96589011300006, -0.5959270049999645], [35.96366149200003, -0.5919086249999737], [35.96053210900004, -0.5846562429999267], [35.959235687000046, -0.5819571389999396], [35.957669972000076, -0.5787431589999414], [35.956364517000054, -0.5761477349999495], [35.954980585000044, -0.5731444049999368], [35.95290252900003, -0.5691472549999617], [35.95156923600007, -0.5684087289999411], [35.95081022000005, -0.5680067649999501], [35.948968326000056, -0.5666561739999452], [35.94858667300008, -0.5658004629999596], [35.94822351900007, -0.5650842529999522], [35.94803621800003, -0.5643291799999588], [35.94801734300006, -0.5630398839999771], [35.947863003000066, -0.5613646559999665], [35.947534982000036, -0.5602681459999417], [35.94797749300005, -0.5591848879999475], [35.94811403700004, -0.5579869409999674], [35.94711124100007, -0.5571868839999752], [35.946198122000055, -0.5565861209999525], [35.94529812800005, -0.5556537319999393], [35.94417302900007, -0.555740989999947], [35.943165029000056, -0.5560637689999339], [35.94205793200007, -0.5563264549999758], [35.941282294000075, -0.5565167399999496], [35.94007794800007, -0.5568931909999719], [35.938318655000046, -0.5572040729999799], [35.93713744000007, -0.5571141209999269], [35.93617777700007, -0.5567467889999307], [35.935442898000076, -0.5562738169999761], [35.934974888000056, -0.555617874999939], [35.93448316200005, -0.5546337309999672], [35.93409386900004, -0.5534630679999282], [35.93393799900008, -0.5524682809999604], [35.933759233000046, -0.5514086339999267], [35.93307579700007, -0.54944786599998], [35.93047579700004, -0.5482478659999401], [35.92447579700007, -0.5478478659999269], [35.917375797000034, -0.5472478659999638], [35.915475797000056, -0.5469478659999254], [35.91217579700003, -0.5469478659999254], [35.90907579700007, -0.5457478659999424], [35.90527579700006, -0.5441478659999461], [35.902875797000036, -0.5414478659999418], [35.90077579700005, -0.5385478659999308], [35.89557579700005, -0.530847865999931], [35.89497579700003, -0.5287478659999465], [35.89247579700003, -0.526747865999937], [35.89127579700005, -0.5251478659999407], [35.890075797000065, -0.5235478659999444], [35.887775797000074, -0.5222478659999297], [35.88537579700005, -0.5210478659999467], [35.88127579700006, -0.5189478659999622], [35.878075797000065, -0.5172478659999342], [35.86437579700004, -0.5101478659999543], [35.853575797000076, -0.5032478659999242], [35.850975797000046, -0.5006478659999516], [35.84797579700006, -0.4991478659999302], [35.838675797000064, -0.4954478659999495], [35.83577579700005, -0.4942478659999665], [35.83348439200006, -0.49300395999995317], [35.83395677100003, -0.49152961799995865], [35.83460178400003, -0.4895167979999542], [35.835056794000025, -0.48809492499992757], [35.83731084000004, -0.48069158599997763], [35.83866786800007, -0.4771888989999411], [35.83987924000007, -0.473501434999946], [35.83945990900003, -0.47231411999996453], [35.83849205900003, -0.4701503709999315], [35.83800278900003, -0.46854446799994776], [35.83779866500004, -0.46779813099993817], [35.83701483300007, -0.4673284759999774], [35.83463418000008, -0.46728521199997886], [35.833065876000035, -0.46730387999997447], [35.830967298000076, -0.4690881899999795], [35.830326693000075, -0.4707824729999288], [35.82977776900003, -0.4719095549999679], [35.829149157000074, -0.4734005159999697], [35.82799367800004, -0.47374473099995384], [35.82713748100008, -0.4739326949999736], [35.823318278000045, -0.4748590329999729], [35.81834765600007, -0.47606464499995127], [35.815472191000026, -0.4766571749999571], [35.81533238000003, -0.47502109599997766], [35.815462557000046, -0.47336712799994984], [35.816582406000066, -0.469534585999952], [35.81689441200007, -0.467525764999948], [35.81698341400005, -0.4664548609999315], [35.81671640800005, -0.4654729489999454], [35.81595291300005, -0.4637356229999341], [35.81450624300004, -0.4601422279999383], [35.81417085500004, -0.4593567379999399], [35.813790065000035, -0.4585482019999745], [35.81287579700006, -0.45644786599996223], [35.80547579700004, -0.4545478659999276], [35.80187579700004, -0.45424786599994604], [35.79767579700007, -0.45544786599992904], [35.79637579700005, -0.45834786599994004], [35.79577579700003, -0.46114786599997615], [35.794675797000025, -0.4666478659999598], [35.79539238000007, -0.4704365489999418], [35.79597935400005, -0.47251245499995775], [35.79578793700006, -0.47402250899995124], [35.79565396900006, -0.4748431139999525], [35.79459289500005, -0.4775198089999435], [35.79386313700007, -0.47959535399996867], [35.79307717100005, -0.4814182119999373], [35.79137283800003, -0.4854835239999602], [35.790052854000066, -0.4891348379999272], [35.78809481300004, -0.4939174099999377], [35.787397799000075, -0.4956352569999467], [35.78511399700005, -0.5004126119999341], [35.78388541400005, -0.5033913069999585], [35.781869939000046, -0.5080225829999563], [35.77918287000006, -0.5141349909999349], [35.77874942200003, -0.516328304999945], [35.77840456900003, -0.5177878439999404], [35.776251425000055, -0.5278933299999267], [35.77479741700006, -0.5354743049999797], [35.77436293100004, -0.5380174449999799], [35.77259049500003, -0.5377704929999254], [35.76466489300003, -0.5359932429999503], [35.763711914000055, -0.5358553709999683], [35.75592756100008, -0.5343695499999512], [35.753974105000054, -0.5339898329999642], [35.753037085000074, -0.5339178399999582], [35.750141179000025, -0.5329016989999786], [35.748381393000045, -0.5323957419999488], [35.744330654000066, -0.5313330099999689], [35.743476885000064, -0.5311090919999515], [35.74134764300004, -0.5308506059999445], [35.740575543000034, -0.5317512829999487], [35.73986245000003, -0.532288249999965], [35.738633152000034, -0.5327407609999568], [35.73778515200007, -0.5331555609999441], [35.73708993400004, -0.533811438999976], [35.73616902600003, -0.5337491209999712], [35.735271047000026, -0.5340008349999721], [35.73472735000007, -0.5351928669999779], [35.73361801300007, -0.536425951999945], [35.73284837800003, -0.5372269749999532], [35.73199244400007, -0.5382538929999328], [35.731720765000034, -0.5394964689999711], [35.73105693900004, -0.5402481999999509], [35.730345612000065, -0.5407214849999491], [35.729845467000075, -0.5414981369999623], [35.729433767000046, -0.5425450379999575], [35.72893383300004, -0.543464007999944], [35.72859063300007, -0.5442062779999333], [35.72801656300004, -0.5449678559999711], [35.72725304800008, -0.5457950319999441], [35.72632736200006, -0.5470643349999591], [35.72567001500005, -0.5479780869999331], [35.724800438000045, -0.5487543159999291], [35.72357122100004, -0.5494584549999786], [35.72256945000004, -0.5502748819999397], [35.72165343100005, -0.5504303679999794], [35.72074591200004, -0.5507965859999331], [35.72024706900004, -0.5517292519999728], [35.71945246300004, -0.5523553889999562], [35.71876172100008, -0.5527785339999696], [35.71769005200008, -0.553073258999973], [35.716858494000064, -0.5532266359999767], [35.71594131100005, -0.5535254679999753], [35.71468983900007, -0.5535102609999285], [35.71354867200006, -0.5536923449999449], [35.712487202000034, -0.5538671289999684], [35.711978663000025, -0.5546313919999761], [35.71120123500003, -0.5570774019999476], [35.71208192100005, -0.559548538999934], [35.711872836000055, -0.5615749379999784], [35.71207579700007, -0.566947865999964], [35.71327383900007, -0.5695598719999566], [35.71343329800004, -0.5706765839999548], [35.714543839000044, -0.5716198059999442], [35.71433600200004, -0.5726662159999591], [35.71392590900007, -0.5733101539999552], [35.71342457500003, -0.5739378069999361], [35.71306252000005, -0.5749841029999629], [35.71302313900003, -0.5765427409999688], [35.71286708800005, -0.577966670999956], [35.71223161900008, -0.578861935999953], [35.711864613000046, -0.5799985839999522], [35.71144453900007, -0.5813988489999247], [35.71053358900008, -0.5823212409999314], [35.71043513300003, -0.583567008999978], [35.70980602000003, -0.5845696709999402], [35.70947883700006, -0.5859834289999526], [35.70856785800004, -0.5864610989999619], [35.70752782100004, -0.5866279549999263], [35.706575351000026, -0.5875670139999443], [35.70615575000005, -0.5884625679999544], [35.70622862000005, -0.5899349429999461], [35.70550133000006, -0.5909125219999396], [35.70481406700003, -0.5918777769999792], [35.703503857000044, -0.5924905819999253], [35.70283205100003, -0.5932476599999745], [35.70225796100004, -0.5941739739999434], [35.70139096100007, -0.5943041029999563], [35.70078095400004, -0.594815826999934], [35.70037674900004, -0.5955269759999737], [35.69963423300004, -0.5965325729999336], [35.69879721700005, -0.5972689509999327], [35.69773372800006, -0.597929057999977], [35.69678725400007, -0.5977746319999255], [35.695941566000045, -0.598228431999928], [35.69542488900004, -0.5991625149999322], [35.69500688000005, -0.599874950999947], [35.69465087300006, -0.6006268839999507], [35.694138391000024, -0.6013107909999462], [35.69369835300006, -0.6023552299999437], [35.69378685500004, -0.6033949699999539], [35.69384235700005, -0.6044060459999514], [35.69373485500006, -0.60567843299998], [35.69335068600003, -0.6065062149999676], [35.69263549900006, -0.6070246459999566], [35.692483898000035, -0.608218749999935], [35.69175548000004, -0.60915945499994], [35.69138430600003, -0.6100790389999702], [35.69088329600004, -0.6115624069999512], [35.69035878500006, -0.6126038139999537], [35.68974877200003, -0.6135687279999615], [35.69036066500007, -0.6146380479999607], [35.68974975200007, -0.6152245289999314], [35.690290541000024, -0.6164330409999366], [35.69008364700005, -0.6175292029999468], [35.68922041500008, -0.6182273009999335], [35.68858109900003, -0.6193465859999492], [35.688421162000054, -0.6204909339999745], [35.68757781100004, -0.621330612999941], [35.68713273800006, -0.6225077019999503], [35.68588404700006, -0.6231022299999722], [35.68590435700003, -0.6243772229999536], [35.686473155000044, -0.6258027499999343], [35.68727952300003, -0.6266889549999632], [35.68747972700004, -0.6276764659999685], [35.68751406100006, -0.6286220479999542], [35.68724172200007, -0.6295178019999526], [35.68685721400004, -0.6301814919999629], [35.68677485100005, -0.631184239999925], [35.68657720900006, -0.632216059999962], [35.68654820800003, -0.6333114619999378], [35.686484707000034, -0.6348073289999547], [35.68650820800008, -0.635956225999962], [35.68636870500006, -0.6372129879999306], [35.68674271300006, -0.6382271889999629], [35.68678621400005, -0.6391469399999323], [35.68649837500004, -0.6401523509999265], [35.68574969300005, -0.6408377889999315], [35.68515201400004, -0.6415945549999265], [35.68454816800005, -0.642313157999979], [35.68388798800004, -0.6429580999999303], [35.683586148000074, -0.6436840349999784], [35.68340314400007, -0.644758938999928], [35.68288330000007, -0.6458158439999693], [35.682485375000056, -0.646671767999976], [35.68227462100003, -0.6474576979999256], [35.682375372000024, -0.6486926419999577], [35.68261206600005, -0.6499084169999492], [35.68263884400005, -0.6509413819999281], [35.68246682900008, -0.6519454099999393], [35.681761884000025, -0.6525555729999724], [35.68070869600007, -0.6529253269999344], [35.68007669600007, -0.6537189299999682], [35.67914192100005, -0.6545306509999591], [35.67922788000004, -0.6555902309999624], [35.67875533600005, -0.656450030999963], [35.678720164000026, -0.6578833069999632], [35.67847098500005, -0.6587537719999546], [35.677853596000034, -0.6595372929999712], [35.67700697500004, -0.6592393959999754], [35.67592231300006, -0.6586645969999267], [35.67420920400008, -0.6587026459999379], [35.673124432000066, -0.6591261549999672], [35.67242491700006, -0.6596941049999714], [35.67175865300004, -0.6606725169999663], [35.67141739600004, -0.6619449029999487], [35.67084038400003, -0.6626803379999728], [35.669940438000026, -0.6631247519999306], [35.669500106000044, -0.6641212089999726], [35.66900334600007, -0.6647174889999405], [35.668847077000066, -0.665532298999949], [35.66886834400003, -0.6668147179999551], [35.66802482600008, -0.6674371629999314], [35.66688337700003, -0.6677861989999769], [35.666699023000035, -0.6686711949999449], [35.66689858900003, -0.6695607229999609], [35.66725751100006, -0.6703608509999412], [35.66712380800004, -0.6711745779999774], [35.66687430300004, -0.6719645079999736], [35.66667179900003, -0.6730390779999311], [35.66621028900005, -0.6742045579999285], [35.665163267000025, -0.6750972279999701], [35.66446415300004, -0.6762051329999395], [35.66497226400003, -0.6770840499999622], [35.66558194300006, -0.6778626469999267], [35.66542844000003, -0.6789385509999306], [35.66500906500005, -0.6798316039999577], [35.664382327000055, -0.6806324999999447], [35.663239059000034, -0.6809837009999455], [35.66226897300004, -0.6812957209999695], [35.66152512600007, -0.6817849939999405], [35.66022375600005, -0.6820190879999473], [35.65913513300006, -0.6826964819999262], [35.65824660000004, -0.6831511939999473], [35.65756018500008, -0.6837958059999778], [35.65678586800004, -0.6845143369999391], [35.655843737000055, -0.6850140129999431], [35.65501430000006, -0.6850360899999259], [35.65430204200004, -0.6854776339999376], [35.653917367000076, -0.6862062359999754], [35.65379378100005, -0.6870366609999792], [35.65317768500006, -0.687681103999978], [35.65237833500004, -0.6885905229999594], [35.652242149000074, -0.6898368589999677], [35.65229350100003, -0.6909493119999297], [35.65209299700007, -0.6919132249999507], [35.651674988000025, -0.6928899709999428], [35.651477234000026, -0.6938730499999792], [35.65136048200003, -0.6947764689999758], [35.65116347800006, -0.6957316339999693], [35.65015512700006, -0.6964108959999749], [35.649021262000076, -0.6964899619999301], [35.64861478800003, -0.6971388589999492], [35.64841354600003, -0.698000694999962], [35.64758326900005, -0.6985169049999627], [35.647468401000026, -0.6996540339999342], [35.64736901500004, -0.700586512999962], [35.647296898000036, -0.7015875269999583], [35.64681382500004, -0.7023867089999385], [35.64564350200004, -0.7025816219999683], [35.644893944000046, -0.70184467699994], [35.64373684800006, -0.7018110069999466], [35.64232679400004, -0.701110903999961], [35.641789782000046, -0.7003369729999349], [35.64087523300003, -0.6989419429999657], [35.63953873500003, -0.6969032809999476], [35.63721267100004, -0.693339673999958], [35.63532305800004, -0.6912022009999532], [35.63406561900007, -0.6897679199999516], [35.63286800700007, -0.6884025809999343], [35.63192987600007, -0.687391459999958], [35.62938032500006, -0.68461823399997], [35.62693567900004, -0.6830436009999517], [35.626014449000024, -0.6822415949999368], [35.62432876400004, -0.6812190339999802], [35.620451037000066, -0.6788667479999617], [35.619386863000045, -0.6781812969999805], [35.61689152800005, -0.6766075709999768], [35.61344865700005, -0.6744370509999271], [35.612460433000024, -0.6738140369999428], [35.610657600000025, -0.6722281189999535], [35.609147578000034, -0.6701096669999629], [35.600132735000045, -0.6574446689999718], [35.59920457100003, -0.6555659099999502], [35.59879364000005, -0.6531208479999577], [35.59839321800007, -0.6514193739999428], [35.59829377800003, -0.6496007769999324], [35.59754188900007, -0.6453252319999478], [35.59673234700006, -0.641499769999939], [35.59590735200004, -0.6370703839999692], [35.59546449100003, -0.6342859999999746], [35.595197590000055, -0.6331098559999759], [35.594528894000064, -0.628826647999972], [35.59412905900007, -0.6262324689999446], [35.59339919900003, -0.620714732999943], [35.59321605400004, -0.6195255919999454], [35.59301188200004, -0.6183621459999245], [35.591963288000045, -0.6119929309999748], [35.59117046000006, -0.6071487439999714], [35.59077105600005, -0.605979849999926], [35.58977579700007, -0.6013478659999691], [35.588175797000076, -0.5913478659999782], [35.587278035000054, -0.5872335519999297], [35.58568457800004, -0.5843187079999552], [35.58068213700005, -0.5758267649999311], [35.575679696000066, -0.5674153389999788], [35.57312011700003, -0.5629882809999458], [35.57034414900005, -0.5584292549999645], [35.568428621000066, -0.5551313059999643], [35.56589688300005, -0.551036627999963], [35.560530819000064, -0.5419700269999339], [35.55429854300007, -0.5314710029999787], [35.548640926000076, -0.5217381909999403], [35.54687500000006, -0.5183715819999293], [35.543033309000066, -0.512227447999976], [35.54143985200005, -0.5094236399999659], [35.53723413900008, -0.5025251539999545], [35.529286945000024, -0.48999648699992804], [35.528680422000036, -0.4890448819999733], [35.528081015000055, -0.4880951549999395], [35.52367871900003, -0.48092193099995484], [35.51787954900004, -0.4715222239999548], [35.512030379000066, -0.4619309639999756], [35.507324219000054, -0.45428466799995704], [35.50645328000007, -0.4528643629999465], [35.49828340700003, -0.43936997799994515], [35.488891602000024, -0.4235839839999471], [35.48393125800004, -0.4157291569999302], [35.480885897000064, -0.4106156809999675], [35.47844571100006, -0.4066320379999411], [35.473602295000035, -0.39920043899996926], [35.47263525500006, -0.399490860999947], [35.471686582000075, -0.3957272449999323], [35.469686582000065, -0.3926272449999715], [35.46658658200005, -0.3876772449999635], [35.46288658200007, -0.3815272449999725], [35.459297366000044, -0.37550662499995724], [35.456286582000075, -0.37057724499993583], [35.452286582000056, -0.36407724499997585], [35.44888658200006, -0.3585272449999479], [35.447086582000054, -0.355527244999962], [35.444036582000024, -0.35052724499996657], [35.44387579700003, -0.3477478659999633], [35.439386582000054, -0.34292724499994165], [35.43648658200004, -0.33812724499995284], [35.434586582000065, -0.3350772449999795], [35.43178658200003, -0.33047724499994047], [35.42988658200005, -0.3274272449999671], [35.42707579700004, -0.3227478659999292], [35.42308658200005, -0.3161772449999489], [35.41948658200005, -0.31022724499996457], [35.41598658200007, -0.3042772449999802], [35.41388658200003, -0.3009272449999685], [35.42188658200007, -0.2981272449999324], [35.42778658200007, -0.2957272449999664], [35.432586582000056, -0.29432724499997676], [35.43638658200007, -0.2928272449999554], [35.43958658200006, -0.2915772449999281], [35.44588658200007, -0.289277244999937], [35.44959760100005, -0.2879072779999774], [35.45086672600007, -0.2874251869999398], [35.45209861500007, -0.2869094809999524], [35.453882055000065, -0.2860722969999756], [35.45788658200007, -0.2839272449999726], [35.464186582000025, -0.28007724499997266], [35.467386582000074, -0.2780772449999631], [35.47068658200004, -0.2762772449999602], [35.476936582000064, -0.2755772449999654], [35.481686582000066, -0.27437724499992555], [35.48407579700006, -0.27384786599992594], [35.48768488600007, -0.2732400629999461], [35.48886459500005, -0.2729170589999512], [35.49100856800004, -0.27213743199996543], [35.49327896300008, -0.2713576509999598], [35.49440291900004, -0.27102764699992576], [35.49858658200003, -0.26992724499996257], [35.50198658200003, -0.26852724499997294], [35.505586582000035, -0.2675772449999272], [35.50953658200007, -0.2688772449999419], [35.51793658200006, -0.2688772449999419], [35.524386582000034, -0.26862724499994783], [35.526486582000075, -0.2657772449999243], [35.52798658200004, -0.2615772449999554], [35.52910179000003, -0.2584572229999367], [35.533436582000036, -0.26057724499997903], [35.53618658200003, -0.2617272449999746], [35.54518658200004, -0.26582724499996857], [35.549286582000036, -0.2675772449999272], [35.55393658200006, -0.2696272449999242], [35.55878658200004, -0.2718772449999278], [35.56368658200006, -0.27522724499993956], [35.56908658200007, -0.2788772449999328], [35.57228658200006, -0.2812272449999682], [35.57178658200007, -0.2854272449999371], [35.57078658200004, -0.2917272449999473], [35.56983658200005, -0.29792724499992573], [35.569286582000075, -0.30227724499997066], [35.58108658200007, -0.3071772449999344], [35.582086582000045, -0.3025772449999522], [35.58283658200003, -0.2993272449999722], [35.583586582000066, -0.2961772449999671], [35.584986582000056, -0.29067724499992664], [35.58713658200003, -0.2884772449999673], [35.59058658200007, -0.28512724499995556], [35.592086582000036, -0.2835272449999593], [35.592386582000074, -0.27972724499994683], [35.593486582000025, -0.2758272449999595], [35.596236582000074, -0.27702724499994247], [35.59913658200003, -0.2794272449999653], [35.601786582000045, -0.2828272449999645], [35.60298658200003, -0.28767724499994074], [35.60380800300004, -0.29003615499993884], [35.604286814000034, -0.29094185199994627], [35.60587579700007, -0.29294786599996314], [35.60758658200007, -0.2902272449999259], [35.61128658200005, -0.2877272449999282], [35.61468658200005, -0.2881772449999289], [35.618086582000046, -0.2888272449999363], [35.619786582000074, -0.2928272449999554], [35.62308658200004, -0.2909272449999776], [35.62603658200004, -0.28932724499992446], [35.631186582000055, -0.28647724499995775], [35.63128658200003, -0.2805272449999734], [35.631486582000036, -0.274927244999958], [35.634586582000054, -0.27272724499994183], [35.637486582000065, -0.27137724499993965], [35.64078658200003, -0.2701272449999692], [35.64528658200004, -0.26997724499995], [35.65018658200006, -0.26452724499995384], [35.65188658200003, -0.25892724499993847], [35.65348658200003, -0.2532272449999482], [35.65393658200003, -0.24952724499996748], [35.654736582000055, -0.24627724499993064], [35.65633658200005, -0.24012724499993965], [35.657636582000066, -0.232927244999928], [35.656586582000045, -0.22792724499993255], [35.65543658200005, -0.2199272449999512], [35.65768658200005, -0.21622724499997048], [35.65548658200004, -0.2111272449999433], [35.65688658200003, -0.20427724499995747], [35.66193658200007, -0.203727244999925], [35.66308658200006, -0.19832724499997312], [35.66418658200007, -0.19282724499993265], [35.66978658200003, -0.1898772449999342], [35.675036582000075, -0.18702724499996748], [35.66608658200005, -0.18322724499995502], [35.66738658200006, -0.1767272449999382], [35.668736582000065, -0.17017724499993392], [35.670459633000064, -0.16353595499992934], [35.66928658200004, -0.16157724499993265], [35.66677579700007, -0.16104786599993304], [35.663336582000056, -0.16182724499992673], [35.66147579700004, -0.16172724499995184], [35.65958658200003, -0.16177724499993928], [35.65663628600004, -0.16278981899995415], [35.65555566200004, -0.16274070599996548], [35.65267414700003, -0.16074364799993646], [35.651601250000056, -0.15717516399996612], [35.650886582000055, -0.1534772449999764], [35.64838658200006, -0.1514272449999794], [35.646886582000036, -0.1494772449999573], [35.64358658200007, -0.14912724499993146], [35.63998658200006, -0.1484772449999241], [35.63638658200006, -0.1494772449999573], [35.634160175000034, -0.150291670999934], [35.63297764200007, -0.1505612369999767], [35.63129311700004, -0.1507174099999702], [35.62863658200007, -0.15067724499994029], [35.62653658200003, -0.14882724499994993], [35.62403658200003, -0.14942724499996984], [35.621675690000075, -0.15034758199993803], [35.62020298900006, -0.1509206819999349], [35.61917108100005, -0.15133623199994872], [35.616721820000066, -0.15239729399996804], [35.61494021300007, -0.15434641099994906], [35.61422087900007, -0.15509294799994677], [35.612597366000045, -0.15660662499993805], [35.611425774000054, -0.1561770409999781], [35.60990834900008, -0.15555540699995163], [35.607884805000026, -0.15301143599992884], [35.605286582000076, -0.1524772449999432], [35.604086582000036, -0.14962724499997648], [35.603786582000055, -0.14692724499997212], [35.60263658200006, -0.14517724499995666], [35.60113658200004, -0.14337724499995375], [35.601431674000025, -0.1407774559999666], [35.601336582000044, -0.13842724499994574], [35.60128658200006, -0.13542724499995984], [35.60033658200007, -0.13187724499994147], [35.597636582000064, -0.12872724499993637], [35.59786494900004, -0.12453171899994686], [35.598886582000034, -0.12047724499996093], [35.60369736600006, -0.1212066249999566], [35.60498492800008, -0.12046417099998052], [35.606199557000025, -0.11981087099997012], [35.61118658200007, -0.1172272449999241], [35.612286582000024, -0.11352724499994338], [35.61258658200006, -0.1090272449999361], [35.61588658200003, -0.10667724499995757], [35.619186582000054, -0.10437724499996648], [35.62313658200003, -0.10122724499996139], [35.621486582000045, -0.09532724499996448], [35.61418658200006, -0.08962724499997421], [35.616736582000044, -0.08642724499992482], [35.615477989000055, -0.08196514999997362], [35.61848658200006, -0.08042724499995302], [35.62123658200005, -0.07897724499997594], [35.62396368000003, -0.07816678099993624], [35.626658537000026, -0.07515276899994205], [35.627865996000025, -0.07213183499993647], [35.63024894700004, -0.06918846099995335], [35.63328658200004, -0.06637724499995556], [35.635386582000024, -0.06402724499997703], [35.637336582000046, -0.061077244999978575], [35.63963658200004, -0.059327244999963114], [35.64127579700005, -0.058447865999937676], [35.64807579700005, -0.056447865999928126], [35.65137579700007, -0.0538478659999555], [35.655475797000065, -0.051447865999932674], [35.65787579700003, -0.049547865999954865], [35.65957579700006, -0.05234786599993413], [35.66707579700005, -0.047747865999951955], [35.66137579700006, -0.05874786599997606], [35.65507579700005, -0.07044786599993813], [35.653375797000024, -0.0759478659999786], [35.66097579700005, -0.07414786599997569], [35.666075797000076, -0.07264786599995432], [35.681675797000025, -0.07244786599994768], [35.68897579700007, -0.07244786599994768], [35.69037579700006, -0.08274786599997697], [35.68867579700003, -0.09094786599996496], [35.69187579700008, -0.10194786599993222], [35.693375797000044, -0.10694786599992767], [35.69817579700003, -0.1104478659999586], [35.704125797000074, -0.11684786599994368], [35.706275797000046, -0.12124786599997606], [35.713675797000064, -0.13014786599995887], [35.71957579700006, -0.13934786599998006], [35.72587579700007, -0.14904786599993258], [35.729875797000034, -0.15524786599996787], [35.72547579700006, -0.16524786599995878], [35.72287579700003, -0.17134786599996232], [35.72297579700006, -0.18204786599994804], [35.72317579700007, -0.19424786599995514], [35.723075797000035, -0.19774786599992922], [35.723977459000025, -0.20311021999992818], [35.73877579700007, -0.19944786599995723], [35.74927579700005, -0.1969478659999595], [35.761675797000066, -0.19434786599993004], [35.77197579700004, -0.1921478659999707], [35.778625797000075, -0.18094786599993995], [35.785627359000046, -0.16957951099993807], [35.790375797000024, -0.16104786599993304], [35.790475797000056, -0.1495478659999776], [35.790475797000056, -0.1386478659999284], [35.790475797000056, -0.12764786599996114], [35.79052777000004, -0.11965009999994436], [35.790375797000024, -0.11654786599996214], [35.790475797000056, -0.11004786599994532], [35.795875797000065, -0.10904786599996896], [35.798975797000026, -0.10194786599993222], [35.80367579700004, -0.09754786599995668], [35.80627579700007, -0.09684786599996187], [35.807095797000045, -0.09730786599993735], [35.807786977000035, -0.09776135899994642], [35.80937579700003, -0.09914786599995296], [35.81027579700003, -0.10134786599996914], [35.81247579700005, -0.10374786599993513], [35.814822641000035, -0.10724182599994947], [35.81797366600006, -0.11194958199996563], [35.81907579700004, -0.11514786599997251], [35.82037751000007, -0.11574409899992588], [35.82947579700004, -0.10594786599995132], [35.83677579700003, -0.09554786599994713], [35.84357579700003, -0.08574786599996287], [35.84697579700003, -0.0811478659999807], [35.85077579700004, -0.07524786599992694], [35.85787579700008, -0.06404786599995305], [35.86537579700007, -0.05264786599997251], [35.872375797000075, -0.04144786599994177], [35.87706665400003, -0.033559271999934026], [35.87917579700007, -0.03594786599995814], [35.881175797000026, -0.03814786599997433], [35.88397579700006, -0.040347865999933674], [35.88617579700008, -0.0427478659999565], [35.888875797000026, -0.04494786599997269], [35.89177579700004, -0.047547865999945316], [35.89447579700004, -0.049747865999961505], [35.90037579700004, -0.04664786599994386], [35.90297579700007, -0.05184786599994595], [35.904875797000045, -0.05574786599993331], [35.908575797000026, -0.06314786599995159], [35.91077579700004, -0.06754786599992713], [35.91467579700003, -0.07544786599993358], [35.91847579700004, -0.07964786599995932], [35.921175797000046, -0.07814786599993795], [35.923075797000024, -0.07634786599993504], [35.92567579700005, -0.0759478659999786], [35.928275797000026, -0.07534786599995869], [35.928693105000036, -0.07273440399995934], [35.928234849000035, -0.06995519299994157], [35.92843835800005, -0.06869536999994352], [35.93163816100008, -0.06611481699997057], [35.934625797000024, -0.06554786599997442], [35.93617579700003, -0.06384786599994641], [35.93737579700007, -0.06174786599996196], [35.93747579700005, -0.058647865999944315], [35.94037579700006, -0.05574786599993331], [35.94417579700007, -0.053747865999980604], [35.94817579700003, -0.05104786599997624], [35.950275797000074, -0.04704786599995714], [35.951675797000064, -0.043747865999932856], [35.95287380600007, -0.04070767799993291], [35.95370770200003, -0.0387624499999788], [35.954575797000075, -0.03694786599993449], [35.955187204000026, -0.03575379699992709], [35.956034110000076, -0.03457631399993488], [35.95693130400008, -0.03360419299997375], [35.95877528400007, -0.03153180799995425], [35.95972579700003, -0.03049786599996196], [35.96057579700005, -0.029547865999973055], [35.96071783800005, -0.02747918999995136], [35.96079244900005, -0.02624836999996205], [35.960925119000024, -0.023901681999973334], [35.963075797000045, -0.022047865999979877], [35.96547579700007, -0.018547865999948954], [35.96807579700004, -0.01564786599993795], [35.970175797000024, -0.012847865999958685], [35.971375797000064, -0.009847865999972782], [35.97257579700005, -0.006447865999973601], [35.973575797000024, -0.001897865999978876], [35.97387579700006, 0.001752134000071237], [35.97517579700008, 0.005052134000038677], [35.976475797000035, 0.00835213400006296], [35.977675797000074, 0.01040213400005996], [35.977884266000046, 0.012534639000023162], [35.978110454000046, 0.013667692000069565], [35.978256173000034, 0.014653324000050816], [35.978216004000046, 0.016936670000063714], [35.977975797000056, 0.017752134000033948], [35.97692298100003, 0.01997358100004476], [35.976429265000036, 0.021030419000055645], [35.97535525700005, 0.022865495000075953], [35.97410475000004, 0.024160365000057027], [35.97233057100004, 0.02525845100007018], [35.96497579700008, 0.03205213400002549], [35.95947579700004, 0.03815213400002904], [35.95327579700006, 0.04525213400006578], [35.94737579700006, 0.05175213400002576], [35.94177579700005, 0.05795213400006105], [35.938475797000024, 0.06165213400004177], [35.93587579700005, 0.06465213400002767], [35.92977579700005, 0.06975213400005487], [35.93026228600007, 0.07095743600007154], [35.932875797000065, 0.07765213400006132], [35.93547579700004, 0.08425213400005305], [35.93807579700007, 0.09065213400003813], [35.94067579700004, 0.0972021340000424], [35.94977579700003, 0.09375213400005578], [35.95527579700007, 0.09275213400002258], [35.95667579700006, 0.09165213400007133], [35.95787579700004, 0.08995213400004332], [35.961075797000035, 0.08855213400005368], [35.96117579700007, 0.08575213400007442], [35.96237579700005, 0.08355213400005823], [35.963375797000026, 0.08125213400006714], [35.96532579700005, 0.07955213400003913], [35.96402579700003, 0.0770521340000414], [35.96437579700006, 0.07395213400002376], [35.965675797000074, 0.07035213400007478], [35.96377579700004, 0.06645213400003058], [35.96417579700005, 0.06195213400002331], [35.965675797000074, 0.059252134000075785], [35.97407579700007, 0.058952134000037404], [35.98327579700003, 0.05985213400003886], [35.98977579700005, 0.06135213400006023], [35.997375797000075, 0.06135213400006023], [36.00037579700006, 0.060352134000027036], [36.00137579700004, 0.05645213400003968], [36.00237579700007, 0.0519521340000324], [36.00337579700005, 0.047452134000025126], [36.00356781200003, 0.04665029100004858], [36.00427579700005, 0.04355213400003777], [36.00497579700004, 0.040752134000058504], [36.005875797000044, 0.036852134000071146], [36.00767579700005, 0.03225213400003213], [36.01257579700007, 0.030052134000072783], [36.01867579700007, 0.027952134000031492], [36.02297579700007, 0.02655213400004186], [36.02597579700006, 0.025552134000065507], [36.03037579700003, 0.024152134000075876], [36.03657579700007, 0.022152134000066326], [36.04277579700005, 0.02075213400001985], [36.044925797000076, 0.01710213400002658], [36.04707579700005, 0.014552134000041406], [36.04987579700003, 0.010452134000047408], [36.051298021000036, 0.008468374000074164], [36.051800797000055, 0.007877134000068509], [36.05347579700003, 0.005852134000065234], [36.055575797000074, 0.004552134000050501], [36.05937579700003, 0.003252134000035767], [36.06247579700005, 0.0023521340000343116], [36.07167579700007, -0.0021478659999729643], [36.07797579700008, -0.004047865999950773], [36.079575797000075, -0.0054478659999404044], [36.081275797000046, -0.0054478659999404044], [36.08797579700007, -0.007847865999963233], [36.09367579700006, -0.00994786599994768], [36.098375797000074, -0.006247865999966962], [36.103775797000026, -0.002047865999941223], [36.10877579700008, 0.003452134000042406], [36.11357579700007, 0.006852134000041588], [36.11272579700005, 0.012552134000031856], [36.11217579700008, 0.017952134000040587], [36.111475797000026, 0.023952134000069236], [36.110675797000056, 0.03035213400005432], [36.10982581600007, 0.03575960000006262], [36.10963099500003, 0.03704586200007043], [36.10907579700006, 0.040752134000058504], [36.108675797000046, 0.04445213400003922], [36.108075797000026, 0.0488521340000716], [36.10767579700007, 0.05235213400004568], [36.10707579700005, 0.05645213400003968], [36.10632579700007, 0.06250213400005578], [36.11247579700006, 0.06185213400004841], [36.120375797000065, 0.06105213400002185], [36.12812579700005, 0.060502134000046226], [36.12857579700005, 0.06585213400006751], [36.12917579700007, 0.07065213400005632], [36.12967579700006, 0.07585213400005841], [36.130275797000024, 0.08075213400002212], [36.13057579700006, 0.08785213400005887], [36.13197579700005, 0.09285213400005432], [36.132875797000054, 0.09875213400005123], [36.13387579700003, 0.1044521340000415], [36.13477579700003, 0.10975213400007533], [36.135801032000074, 0.11474684300003446], [36.13601711800004, 0.11596093600002177], [36.13618758800004, 0.11672093700002506], [36.13727579700003, 0.12025213400005441], [36.140075797000065, 0.1278521340000225], [36.14077579700006, 0.13225213400005487], [36.14167579700006, 0.1384521340000333], [36.142463931000066, 0.14415375200002245], [36.14258124600008, 0.14505146700003024], [36.14307579700005, 0.14905213400004413], [36.14327579700006, 0.15195213400005514], [36.14397579700005, 0.15545213400002922], [36.14467579700005, 0.1605521340000564], [36.145475797000074, 0.16655213400002822], [36.14617579700007, 0.17145213400004877], [36.14697579700004, 0.1769521340000324], [36.147775797000065, 0.18305213400003595], [36.14827579700005, 0.1867521340000735], [36.15562579700003, 0.1890521340000646], [36.16477579700006, 0.19135213400005568], [36.173675797000044, 0.1939521340000283], [36.18007579700003, 0.19565213400005632], [36.18867579700003, 0.19815213400005405], [36.194775797000034, 0.19985213400002522], [36.19910052300003, 0.20212292800005116], [36.19889271100004, 0.20553162800007385], [36.199175797000066, 0.20825213400001985], [36.198575797000046, 0.21115213400003086], [36.197975797000026, 0.21565213400003813], [36.19717579700006, 0.2193521340000757], [36.19447579700005, 0.22085213400004022], [36.19177579700005, 0.22185213400007342], [36.18837579700005, 0.2224521340000365], [36.18527579700003, 0.2242521340000394], [36.18186645500003, 0.22652240200005735], [36.180709765000074, 0.2282126360000234], [36.180237989000034, 0.2298776150000208], [36.18317579700005, 0.2313521340000193], [36.18607579700006, 0.23205213400007096], [36.19097579700008, 0.23315213400002222], [36.194775797000034, 0.23405213400002367], [36.19727579700003, 0.23475213400007533], [36.201675797000064, 0.23575213400005168], [36.20517579700004, 0.23395213400004877], [36.20847579700006, 0.2313521340000193], [36.21087579700003, 0.22975213400002303], [36.215675797000074, 0.22625213400004895], [36.22177579700008, 0.22175213400004168], [36.225075797000045, 0.21925213400004395], [36.228775797000026, 0.2164521340000647], [36.231075797000074, 0.21475213400003668], [36.235675797000056, 0.2113521340000375], [36.23887579700005, 0.20695213400006196], [36.24097579700003, 0.20375213400006942], [36.24317579700005, 0.20035213400007024], [36.24717579700007, 0.1942521340000667], [36.25087579700005, 0.18855213400001958], [36.25207579700003, 0.18665213400004177], [36.25410349400005, 0.18392681800003174], [36.255022860000054, 0.18273236700002826], [36.25621674900003, 0.18158942400003752], [36.25757925100004, 0.18013211100003446], [36.25826249800008, 0.1794388370000206], [36.25895081300007, 0.17873426700003847], [36.26035299900008, 0.17727344000002176], [36.264754079000056, 0.1703465520000691], [36.268946948000064, 0.16369685600005823], [36.26966123500006, 0.16254324800001996], [36.27249888500006, 0.15783728200005953], [36.27522421500004, 0.1534074770000302], [36.27570304400007, 0.15260635300006697], [36.27643464400006, 0.15136659200004488], [36.27686413500004, 0.15066741200007527], [36.277331220000065, 0.14978707300002725], [36.27808170700007, 0.14815664600007494], [36.28138919300005, 0.1394291920000228], [36.285666906000074, 0.1284106400000269], [36.28592516800006, 0.12741462500002854], [36.28667642700003, 0.12368292500002553], [36.28693400700007, 0.12244844700006752], [36.28728986100003, 0.12076107500007538], [36.28827623500007, 0.11664469700002655], [36.288998168000035, 0.11346994200005156], [36.28510076500004, 0.10836564500004897], [36.28067579700007, 0.10395213400005332], [36.27232326400008, 0.09164364000002934], [36.27180042500004, 0.09095099200004597], [36.271212124000044, 0.08998960200005968], [36.27066703700007, 0.08897774800004754], [36.27027763500007, 0.08816564100004598], [36.26980605500006, 0.0870493080000756], [36.26949909100006, 0.08627663600003643], [36.26806156500004, 0.0824633580000409], [36.262467299000036, 0.06816597900007082], [36.26153569200005, 0.06559231100004581], [36.26082409600008, 0.06423381500002279], [36.25917316500005, 0.06205271700002868]]]}}]}